SNUGLITE                
1 43784U 18099AC  26068.67299661  .00013838  00000+0  55963-3 0  9994
2 43784  97.4003 124.0343 0001339 280.5957  79.5129 15.24835996398140
YAOGAN-43 02B           
1 60946U 24156B   26068.41368763  .00015184  00000+0  62308-3 0  9993
2 60946  34.9944 105.5294 0002154 182.9946 177.0756 15.23399653 84222
