[{"OBJECT_NAME":"SNUGLITE","OBJECT_ID":"2018-099AC","EPOCH":"2026-03-09T16:09:06.907968","MEAN_MOTION":15.24835996,"ECCENTRICITY":0.00013388,"INCLINATION":97.4003,"RA_OF_ASC_NODE":124.0343,"ARG_OF_PERICENTER":280.5957,"MEAN_ANOMALY":79.5129,"EPHEMERIS_TYPE":0,"CLASSIFICATION_TYPE":"U","NORAD_CAT_ID":43784,"ELEMENT_SET_NO":999,"REV_AT_EPOCH":39814,"BSTAR":0.00055962727,"MEAN_MOTION_DOT":0.00013838,"MEAN_MOTION_DDOT":0},{"OBJECT_NAME":"YAOGAN-43 02B","OBJECT_ID":"2024-156B","EPOCH":"2026-03-09T09:55:42.611232","MEAN_MOTION":15.23399653,"ECCENTRICITY":0.00021542,"INCLINATION":34.9944,"RA_OF_ASC_NODE":105.5294,"ARG_OF_PERICENTER":182.9946,"MEAN_ANOMALY":177.0756,"EPHEMERIS_TYPE":0,"CLASSIFICATION_TYPE":"U","NORAD_CAT_ID":60946,"ELEMENT_SET_NO":999,"REV_AT_EPOCH":8422,"BSTAR":0.00062307708,"MEAN_MOTION_DOT":0.00015184,"MEAN_MOTION_DDOT":0}]
